MEAN_MOTION;ECCENTRICITY;INCLINATION;RA_OF_ASC_NODE;ARG_OF_PERICENTER;MEAN_ANOMALY;BSTAR;MEAN_MOTION_DOT;MEAN_MOTION_DDOT;TYPE
14.30535076;0.0005413;67.0495;248.4499;274.3301;85.7181;2.7876E-5;-1.0E-7;0;Amateur
14.30535194;0.0005407;67.0497;245.7435;274.5357;85.5126;2.6131E-5;-1.5E-7;0;Amateur
14.30535339;0.0005416;67.0498;243.2176;274.6882;85.3601;2.1205E-5;-2.8E-7;0;Amateur
14.30535348;0.0005419;67.0498;243.0372;274.7228;85.3254;2.0687E-5;-2.9E-7;0;Amateur
14.30535404;0.0005421;67.0499;241.5938;274.7967;85.2515;1.517E-5;-4.3E-7;0;Amateur
14.30535444;0.0005428;67.0499;240.5113;274.8952;85.1529;1.4498E-5;-4.5E-7;0;Amateur
14.30535508;0.0005431;67.05;239.068;275.0004;85.0477;1.193E-5;-5.2E-7;0;Amateur
14.30535589;0.0005441;67.0501;235.64;275.2712;84.7768;1.3286E-5;-4.8E-7;0;Amateur
14.30535603;0.0005441;67.0501;235.4595;275.3367;84.7113;1.427E-5;-4.6E-7;0;Amateur
14.30535671;0.0005467;67.0502;233.1143;275.3579;84.6898;1.5904E-5;-4.1E-7;0;Amateur
14.30535756;0.0005476;67.0503;231.1298;275.3762;84.6715;1.5932E-5;-4.1E-7;0;Amateur
14.30535774;0.0005482;67.0503;230.4081;275.4285;84.6191;1.7243E-5;-3.8E-7;0;Amateur
14.30535904;0.000549;67.0504;227.7019;275.6006;84.4469;1.6559E-5;-4.0E-7;0;Amateur
14.30535993;0.0005501;67.0506;225.1762;275.7892;84.2582;1.589E-5;-4.2E-7;0;Amateur
14.3053606;0.0005512;67.0507;223.372;275.9111;84.1362;1.6508E-5;-4.0E-7;0;Amateur
14.3053607;0.0005521;67.0507;222.8308;275.9579;84.0893;1.8119E-5;-3.6E-7;0;Amateur
14.30536161;0.0005545;67.0509;220.3051;275.9905;84.0564;2.2909E-5;-2.3E-7;0;Amateur
14.30536245;0.0005556;67.0511;218.1402;276.0694;83.9774;2.5688E-5;-1.6E-7;0;Amateur
14.30536267;0.0005558;67.051;217.7793;276.108;83.9387;2.703E-5;-1.2E-7;0;Amateur
14.30536318;0.0005562;67.0511;216.5165;276.1953;83.8514;2.664E-5;-1.3E-7;0;Amateur
14.30536356;0.0005566;67.0512;215.6145;276.1848;83.8619;2.5115E-5;-1.7E-7;0;Amateur
14.30536385;0.0005568;67.0512;215.0732;276.2494;83.7973;2.5602E-5;-1.6E-7;0;Amateur
14.30536459;0.0005579;67.0513;213.0888;276.2864;83.7601;1.9689E-5;-3.2E-7;0;Amateur
14.30536464;0.0005581;67.0513;212.9084;276.314;83.7325;1.9926E-5;-3.1E-7;0;Amateur
14.30536483;0.0005585;67.0513;212.3672;276.3489;83.6976;1.8411E-5;-3.5E-7;0;Amateur
14.30536544;0.0005596;67.0514;209.6612;276.5243;83.5221;8.7542E-6;-6.0E-7;0;Amateur
14.30536583;0.0005616;67.0515;207.316;276.6743;83.3719;5.8404E-6;-6.8E-7;0;Amateur
14.30536618;0.0005625;67.0515;206.2336;276.7296;83.3165;6.9101E-6;-6.5E-7;0;Amateur
14.30536674;0.0005638;67.0515;204.61;276.8045;83.2415;1.0909E-5;-5.5E-7;0;Amateur
14.30536715;0.000565;67.0515;202.806;276.8068;83.239;1.294E-5;-4.9E-7;0;Amateur
14.30536737;0.0005651;67.0515;202.2648;276.882;83.1638;1.5445E-5;-4.3E-7;0;Amateur
14.30536798;0.0005662;67.0515;199.7392;276.9623;83.0834;1.6612E-5;-4.0E-7;0;Amateur
14.30536844;0.0005663;67.0515;199.198;277.0122;83.0335;1.745E-5;-3.7E-7;0;Amateur
14.30536949;0.0005679;67.0515;197.2136;277.04;83.0055;1.9911E-5;-3.1E-7;0;Amateur
14.30537011;0.0005686;67.0515;195.9508;277.1122;82.9332;1.9623E-5;-3.2E-7;0;Amateur
14.30537029;0.0005695;67.0515;194.8684;277.1302;82.9151;1.7999E-5;-3.6E-7;0;Amateur
14.30537123;0.0005705;67.0515;193.2448;277.1961;82.8491;1.9203E-5;-3.3E-7;0;Amateur
14.30537145;0.0005714;67.0515;192.3428;277.2324;82.8128;2.0244E-5;-3.0E-7;0;Amateur
14.30537154;0.0005715;67.0515;192.1624;277.2556;82.7896;2.054E-5;-2.9E-7;0;Amateur
14.30537208;0.0005725;67.0516;191.08;277.3249;82.7201;2.2298E-5;-2.5E-7;0;Amateur
14.30537362;0.0005745;67.0515;188.1936;277.4476;82.5972;2.8845E-5;-8.0E-8;0;Amateur
14.30537412;0.0005756;67.0515;187.1112;277.4903;82.5544;3.1323E-5;-1.0E-8;0;Amateur
14.3053753;0.0005762;67.0515;185.4876;277.5295;82.5152;3.2813E-5;3.0E-8;0;Amateur
14.30537621;0.0005773;67.0515;183.6836;277.637;82.4076;3.0895E-5;-2.0E-8;0;Amateur
14.30537699;0.0005783;67.0514;182.2404;277.6125;82.4319;2.8421E-5;-9.0E-8;0;Amateur
14.30537768;0.000579;67.0514;181.158;277.6849;82.3594;2.5744E-5;-1.6E-7;0;Amateur
14.30537821;0.0005802;67.0513;179.354;277.7269;82.3173;1.9477E-5;-3.2E-7;0;Amateur
14.30537955;0.0005822;67.0512;176.648;277.8166;82.2274;1.6437E-5;-4.0E-7;0;Amateur
14.30538077;0.0005846;67.051;173.9419;277.9156;82.1282;1.8475E-5;-3.5E-7;0;Amateur
14.30538163;0.000586;67.0509;171.7771;277.9721;82.0715;2.2394E-5;-2.5E-7;0;Amateur
14.30538267;0.0005869;67.0507;170.1534;277.9927;82.0508;2.5347E-5;-1.7E-7;0;Amateur
14.30538295;0.0005876;67.0507;169.2514;278.0251;82.0184;2.7271E-5;-1.2E-7;0;Amateur
14.30538403;0.0005892;67.0505;166.5453;278.1143;81.9289;2.6679E-5;-1.3E-7;0;Amateur
14.30538503;0.0005904;67.0504;164.0195;278.1255;81.9177;2.3511E-5;-2.2E-7;0;Amateur
14.305386;0.0005925;67.0503;161.4939;278.2728;81.7701;2.2002E-5;-2.6E-7;0;Amateur
14.30538679;0.0005937;67.0502;159.8702;278.3248;81.718;2.204E-5;-2.5E-7;0;Amateur
14.30538735;0.0005946;67.0502;158.7877;278.3302;81.7125;2.5435E-5;-1.7E-7;0;Amateur
14.30538838;0.0005957;67.0502;157.164;278.3269;81.7157;2.7077E-5;-1.2E-7;0;Amateur
14.30538861;0.0005966;67.0501;156.262;278.3852;81.6573;2.9144E-5;-7.0E-8;0;Amateur
14.30538961;0.0005986;67.0499;153.736;278.5226;81.5197;2.8562E-5;-8.0E-8;0;Amateur
14.30539077;0.0005996;67.0498;151.2103;278.5738;81.4684;2.3756E-5;-2.1E-7;0;Amateur
14.30539149;0.000601;67.0497;149.4061;278.5702;81.4718;1.6665E-5;-3.9E-7;0;Amateur
14.30539181;0.0006012;67.0497;148.504;278.5813;81.4607;1.5674E-5;-4.2E-7;0;Amateur
14.30539209;0.0006014;67.0497;147.7825;278.6421;81.3999;1.3436E-5;-4.8E-7;0;Amateur
14.30539265;0.0006027;67.0496;145.9783;278.6851;81.3567;1.0953E-5;-5.4E-7;0;Amateur
14.30539355;0.0006041;67.0495;143.4524;278.6368;81.4048;1.2631E-5;-5.0E-7;0;Amateur
14.30539419;0.0006051;67.0494;141.6482;278.6117;81.4298;1.495E-5;-4.4E-7;0;Amateur
14.3053944;0.0006063;67.0494;140.9266;278.7143;81.3271;1.7974E-5;-3.6E-7;0;Amateur
14.30539534;0.0006078;67.0493;138.4006;278.7998;81.2415;2.3093E-5;-2.3E-7;0;Amateur
14.30539558;0.0006081;67.0493;137.8594;278.8758;81.1655;2.3068E-5;-2.3E-7;0;Amateur
14.30539639;0.0006093;67.0492;135.8747;279.0355;81.0057;2.4658E-5;-1.9E-7;0;Amateur
14.30539727;0.0006109;67.0492;133.8901;279.1317;80.9093;2.2063E-5;-2.5E-7;0;Amateur
14.3053979;0.0006122;67.0493;132.4467;279.3373;80.7036;2.1294E-5;-2.7E-7;0;Amateur
14.3053984;0.0006133;67.0493;130.8229;279.415;80.6258;1.966E-5;-3.2E-7;0;Amateur
14.30539956;0.0006157;67.0493;128.1166;279.5852;80.4553;2.0615E-5;-2.9E-7;0;Amateur
14.30540057;0.0006175;67.0494;125.7711;279.594;80.4464;2.2899E-5;-2.3E-7;0;Amateur
14.30540151;0.0006184;67.0494;123.606;279.524;80.5162;2.3497E-5;-2.2E-7;0;Amateur
14.30540174;0.0006184;67.0494;123.2452;279.5477;80.4925;2.4547E-5;-1.9E-7;0;Amateur
14.30540321;0.0006194;67.0495;120.5389;279.5755;80.4646;2.2693E-5;-2.4E-7;0;Amateur
14.3054048;0.0006201;67.0495;116.5697;279.7014;80.3386;1.1679E-5;-5.3E-7;0;Amateur
14.3054049;0.0006191;67.0496;115.8479;279.7145;80.3257;1.0389E-5;-5.6E-7;0;Amateur
14.30540506;0.0006195;67.0496;115.3066;279.7077;80.3325;9.7627E-6;-5.8E-7;0;Amateur
14.30540589;0.0006212;67.0497;112.7807;279.7278;80.3121;9.7253E-6;-5.8E-7;0;Amateur
14.30540763;0.0006237;67.0498;108.0897;279.6523;80.3873;1.9476E-5;-3.2E-7;0;Amateur
14.30540785;0.000624;67.0498;107.7289;279.6335;80.4061;2.1081E-5;-2.8E-7;0;Amateur
14.30540896;0.0006251;67.05;105.203;279.6751;80.3644;2.3719E-5;-2.1E-7;0;Amateur
14.30541014;0.0006268;67.0502;102.4967;279.8284;80.2109;2.149E-5;-2.7E-7;0;Amateur
14.30541102;0.000627;67.0503;101.0534;279.8463;80.193;1.965E-5;-3.2E-7;0;Amateur
14.3054117;0.0006277;67.0504;99.9709;279.9479;80.0913;2.1412E-5;-2.7E-7;0;Amateur
14.30541218;0.0006283;67.0505;98.5276;279.9744;80.0648;1.7947E-5;-3.6E-7;0;Amateur
14.30541242;0.0006292;67.0506;97.8059;279.9936;80.0455;1.9142E-5;-3.3E-7;0;Amateur
14.3054126;0.0006302;67.0506;97.4451;280.0658;79.9732;1.9362E-5;-3.2E-7;0;Amateur
14.30541374;0.0006316;67.0508;95.0998;280.1099;79.929;2.1776E-5;-2.6E-7;0;Amateur
14.30541388;0.0006314;67.0508;94.9193;280.1244;79.9145;2.2581E-5;-2.4E-7;0;Amateur
14.30541554;0.0006319;67.051;92.3936;280.0776;79.9612;2.6365E-5;-1.4E-7;0;Amateur
14.30541692;0.0006324;67.0512;89.3266;280.0298;80.0089;2.2079E-5;-2.5E-7;0;Amateur
14.30541746;0.0006325;67.0512;88.2442;280.0364;80.0023;1.8874E-5;-3.4E-7;0;Amateur
14.30541842;0.0006334;67.0514;85.7185;279.9284;80.1102;1.2262E-5;-5.1E-7;0;Amateur
14.3054192;0.0006346;67.0515;83.0124;279.9086;80.1298;8.0916E-6;-6.2E-7;0;Amateur
14.30541925;0.0006352;67.0516;82.4712;279.9078;80.1306;9.4974E-6;-5.8E-7;0;Amateur
14.30542003;0.0006356;67.0517;80.4866;279.8961;80.1422;1.0912E-5;-5.4E-7;0;Amateur
14.30542034;0.0006362;67.0517;79.5846;279.9342;80.1041;1.4849E-5;-4.4E-7;0;Amateur
14.30542083;0.0006365;67.0518;77.9609;279.9287;80.1095;1.6608E-5;-4.0E-7;0;Amateur
14.30542187;0.0006375;67.052;75.4352;279.9504;80.0878;2.1967E-5;-2.6E-7;0;Amateur
14.3054219;0.0006377;67.052;75.2548;279.9433;80.0948;2.2126E-5;-2.5E-7;0;Amateur
14.30542237;0.0006385;67.052;73.992;279.9939;80.0441;2.3605E-5;-2.1E-7;0;Amateur
14.30542288;0.0006385;67.0521;72.7292;279.9444;80.0937;2.1994E-5;-2.6E-7;0;Amateur
14.30542304;0.0006387;67.0521;72.188;279.9208;80.1172;2.2713E-5;-2.4E-7;0;Amateur
14.30542383;0.0006396;67.0522;70.2035;279.9548;80.0831;1.7836E-5;-3.6E-7;0;Amateur
14.305424;0.0006401;67.0523;69.4819;279.9847;80.0532;1.8029E-5;-3.6E-7;0;Amateur
14.3054246;0.0006407;67.0524;67.6779;279.9847;80.0531;1.3927E-5;-4.7E-7;0;Amateur
14.30542491;0.0006412;67.0524;66.7759;279.9531;80.0846;1.5542E-5;-4.2E-7;0;Amateur
14.3054254;0.0006418;67.0524;64.9719;279.927;80.1107;1.393E-5;-4.7E-7;0;Amateur
14.30542614;0.0006417;67.0525;62.6267;279.9074;80.1303;1.5531E-5;-4.2E-7;0;Amateur
14.30542603;0.0006419;67.0525;62.4463;279.8828;80.1548;1.5034E-5;-4.4E-7;0;Amateur
14.30542675;0.0006421;67.0525;59.9207;279.8208;80.2168;1.5703E-5;-4.2E-7;0;Amateur
14.3054275;0.0006416;67.0526;58.6579;279.8408;80.1968;1.7545E-5;-3.7E-7;0;Amateur
14.30542821;0.0006418;67.0525;56.6735;279.7994;80.2382;1.5818E-5;-4.2E-7;0;Amateur
